[{"OBJECT_NAME":"STARLINK-3576","OBJECT_ID":"2022-022AH","EPOCH":"2026-03-09T04:31:24.254688","MEAN_MOTION":15.08833975,"ECCENTRICITY":0.00014607,"INCLINATION":53.2199,"RA_OF_ASC_NODE":1.5536,"ARG_OF_PERICENTER":93.4769,"MEAN_ANOMALY":266.639,"EPHEMERIS_TYPE":0,"CLASSIFICATION_TYPE":"U","NORAD_CAT_ID":51883,"ELEMENT_SET_NO":999,"REV_AT_EPOCH":22316,"BSTAR":1.2565327e-5,"MEAN_MOTION_DOT":-8.8e-7,"MEAN_MOTION_DDOT":0},{"OBJECT_NAME":"TIANPING 2C","OBJECT_ID":"2022-032D","EPOCH":"2026-03-09T22:24:23.522112","MEAN_MOTION":15.10225163,"ECCENTRICITY":0.00079422,"INCLINATION":97.5961,"RA_OF_ASC_NODE":122.1196,"ARG_OF_PERICENTER":128.8925,"MEAN_ANOMALY":231.3013,"EPHEMERIS_TYPE":0,"CLASSIFICATION_TYPE":"U","NORAD_CAT_ID":52156,"ELEMENT_SET_NO":999,"REV_AT_EPOCH":21586,"BSTAR":0.00036090623,"MEAN_MOTION_DOT":5.841e-5,"MEAN_MOTION_DDOT":0}]
